[
  {
    "OBJECT_NAME": "STARLINK-33750",
    "OBJECT_ID": "25071W",
    "EPOCH": "2025-11-11T07:36:16.049952",
    "MEAN_MOTION": 15.30191655,
    "ECCENTRICITY": 0.0001417,
    "INCLINATION": 53.1609,
    "RA_OF_ASC_NODE": 329.9151,
    "ARG_OF_PERICENTER": 94.2231,
    "MEAN_ANOMALY": 265.8932,
    "EPHEMERIS_TYPE": 0,
    "CLASSIFICATION_TYPE": "U",
    "NORAD_CAT_ID": 63513,
    "ELEMENT_SET_NO": 999,
    "REV_AT_EPOCH": 3462,
    "BSTAR": 0.0016844000000000002,
    "MEAN_MOTION_DOT": 0.00049851,
    "MEAN_MOTION_DDOT": 0.0,
    "TLE_LINE1": "1 63513U 25071W   25315.31685243  .00049851  00000+0  16844-2 0  9992",
    "TLE_LINE2": "2 63513  53.1609 329.9151 0001417  94.2231 265.8932 15.30191655 34624",
    "COMMENT": "Grouped by shell and plane from TLE"
  },
  {
    "OBJECT_NAME": "STARLINK-33796",
    "OBJECT_ID": "25071Y",
    "EPOCH": "2025-11-11T06:46:07.150944",
    "MEAN_MOTION": 15.30220519,
    "ECCENTRICITY": 0.0001191,
    "INCLINATION": 53.1602,
    "RA_OF_ASC_NODE": 329.6996,
    "ARG_OF_PERICENTER": 68.7879,
    "MEAN_ANOMALY": 291.3249,
    "EPHEMERIS_TYPE": 0,
    "CLASSIFICATION_TYPE": "U",
    "NORAD_CAT_ID": 63515,
    "ELEMENT_SET_NO": 999,
    "REV_AT_EPOCH": 3464,
    "BSTAR": 0.00089302,
    "MEAN_MOTION_DOT": 0.000262,
    "MEAN_MOTION_DDOT": 0.0,
    "TLE_LINE1": "1 63515U 25071Y   25315.28202721  .00026200  00000+0  89302-3 0  9999",
    "TLE_LINE2": "2 63515  53.1602 329.6996 0001191  68.7879 291.3249 15.30220519 34645",
    "COMMENT": "Grouped by shell and plane from TLE"
  },
  {
    "OBJECT_NAME": "STARLINK-33803",
    "OBJECT_ID": "25071AA",
    "EPOCH": "2025-11-11T06:56:45.344544",
    "MEAN_MOTION": 15.30210373,
    "ECCENTRICITY": 0.0001567,
    "INCLINATION": 53.1607,
    "RA_OF_ASC_NODE": 329.7398,
    "ARG_OF_PERICENTER": 90.1644,
    "MEAN_ANOMALY": 269.9537,
    "EPHEMERIS_TYPE": 0,
    "CLASSIFICATION_TYPE": "U",
    "NORAD_CAT_ID": 63517,
    "ELEMENT_SET_NO": 999,
    "REV_AT_EPOCH": 3464,
    "BSTAR": 0.00040709000000000003,
    "MEAN_MOTION_DOT": 0.0001172,
    "MEAN_MOTION_DDOT": 0.0,
    "TLE_LINE1": "1 63517U 25071AA  25315.28941371  .00011720  00000+0  40709-3 0  9991",
    "TLE_LINE2": "2 63517  53.1607 329.7398 0001567  90.1644 269.9537 15.30210373 34643",
    "COMMENT": "Grouped by shell and plane from TLE"
  }
]